STARLINK-36552          
1 67503U 26012L   26028.91668981 -.01421735  61168-3 -29767-2 0  9991
2 67503  42.9965 185.5455 0001933 286.9831 115.4845 15.98125700  2675
STARLINK-36512          
1 67504U 26012M   26028.91668981 -.01419637  61072-3 -29543-2 0  9996
2 67504  42.9963 185.5375 0001767 282.4644 123.1221 15.98234115  2678
STARLINK-36545          
1 67505U 26012N   26028.91668981 -.01415785  60805-3 -29367-2 0  9994
2 67505  42.9962 185.5326 0001611 283.0835 124.3669 15.98292339  2672
STARLINK-36553          
1 67506U 26012P   26028.91668981 -.01400451  59654-3 -28909-2 0  9990
2 67506  42.9966 185.5267 0001729 278.9454 131.0351 15.98374953  2677
STARLINK-36521          
1 67507U 26012Q   26028.91668981 -.01397706  59510-3 -28670-2 0  9995
2 67507  42.9964 185.5185 0001865 280.1153 132.9939 15.98486704  2677
STARLINK-36526          
1 67508U 26012R   26028.91668981 -.01399746  59745-3 -28519-2 0  9994
2 67508  42.9964 185.5103 0001784 281.5289 134.8362 15.98607145  2678
STARLINK-36541          
1 67509U 26012S   26028.91668981 -.01388651  58933-3 -28155-2 0  9992
2 67509  42.9965 185.5034 0001792 281.1783 137.6999 15.98692340  2619
STARLINK-36549          
1 67510U 26012T   26028.91668981 -.01309342  53800-3 -24271-2 0  9997
2 67510  42.9959 185.3777 0001639 281.7413 186.4543 16.00252256  2611
STARLINK-36540          
1 67511U 26012U   26028.91668981 -.01391278  59177-3 -28107-2 0  9992
2 67511  42.9965 185.4991 0001603 280.2745 140.5357 15.98756850  2676
STARLINK-36538          
1 67512U 26012V   26028.91668981 -.01377812  58196-3 -27667-2 0  9991
2 67512  42.9968 185.4909 0001740 277.9217 145.9193 15.98861379  2678
STARLINK-36531          
1 67513U 26012W   26028.91668981 -.01383756  58716-3 -27640-2 0  9995
2 67513  42.9971 185.4852 0001639 280.2548 146.0753 15.98956021  2618
STARLINK-36530          
1 67514U 26012X   26028.91668981 -.01376724  58242-3 -27316-2 0  9997
2 67514  42.9968 185.4764 0001623 280.6733 148.9158 15.99073436  2611
