CCSDS_OMM_VERS = 2.0
CREATION_DATE  = 
ORIGINATOR     = 

OBJECT_NAME    = STARLINK-36552
OBJECT_ID      = 2026-012L
CENTER_NAME    = EARTH
REF_FRAME      = TEME
TIME_SYSTEM    = UTC
MEAN_ELEMENT_THEORY = SGP/SGP4

EPOCH          = 2026-01-28T22:00:01.999584
MEAN_MOTION    = 15.98125700
ECCENTRICITY   = .00019335
INCLINATION    = 42.9965
RA_OF_ASC_NODE = 185.5455
ARG_OF_PERICENTER = 286.9831
MEAN_ANOMALY   = 115.4845

EPHEMERIS_TYPE = 0
CLASSIFICATION_TYPE = U
NORAD_CAT_ID   = 67503
ELEMENT_SET_NO = 999
REV_AT_EPOCH   = 267
BSTAR          = -.29766582E-2
MEAN_MOTION_DOT = -.1421735E-1
MEAN_MOTION_DDOT = .61167951E-3

CCSDS_OMM_VERS = 2.0
CREATION_DATE  = 
ORIGINATOR     = 

OBJECT_NAME    = STARLINK-36512
OBJECT_ID      = 2026-012M
CENTER_NAME    = EARTH
REF_FRAME      = TEME
TIME_SYSTEM    = UTC
MEAN_ELEMENT_THEORY = SGP/SGP4

EPOCH          = 2026-01-28T22:00:01.999584
MEAN_MOTION    = 15.98234115
ECCENTRICITY   = .00017675
INCLINATION    = 42.9963
RA_OF_ASC_NODE = 185.5375
ARG_OF_PERICENTER = 282.4644
MEAN_ANOMALY   = 123.1221

EPHEMERIS_TYPE = 0
CLASSIFICATION_TYPE = U
NORAD_CAT_ID   = 67504
ELEMENT_SET_NO = 999
REV_AT_EPOCH   = 267
BSTAR          = -.29542976E-2
MEAN_MOTION_DOT = -.1419637E-1
MEAN_MOTION_DDOT = .61071904E-3

CCSDS_OMM_VERS = 2.0
CREATION_DATE  = 
ORIGINATOR     = 

OBJECT_NAME    = STARLINK-36545
OBJECT_ID      = 2026-012N
CENTER_NAME    = EARTH
REF_FRAME      = TEME
TIME_SYSTEM    = UTC
MEAN_ELEMENT_THEORY = SGP/SGP4

EPOCH          = 2026-01-28T22:00:01.999584
MEAN_MOTION    = 15.98292339
ECCENTRICITY   = .00016112
INCLINATION    = 42.9962
RA_OF_ASC_NODE = 185.5326
ARG_OF_PERICENTER = 283.0835
MEAN_ANOMALY   = 124.3669

EPHEMERIS_TYPE = 0
CLASSIFICATION_TYPE = U
NORAD_CAT_ID   = 67505
ELEMENT_SET_NO = 999
REV_AT_EPOCH   = 267
BSTAR          = -.29366561E-2
MEAN_MOTION_DOT = -.1415785E-1
MEAN_MOTION_DDOT = .60805319E-3

CCSDS_OMM_VERS = 2.0
CREATION_DATE  = 
ORIGINATOR     = 

OBJECT_NAME    = STARLINK-36553
OBJECT_ID      = 2026-012P
CENTER_NAME    = EARTH
REF_FRAME      = TEME
TIME_SYSTEM    = UTC
MEAN_ELEMENT_THEORY = SGP/SGP4

EPOCH          = 2026-01-28T22:00:01.999584
MEAN_MOTION    = 15.98374953
ECCENTRICITY   = .00017295
INCLINATION    = 42.9966
RA_OF_ASC_NODE = 185.5267
ARG_OF_PERICENTER = 278.9454
MEAN_ANOMALY   = 131.0351

EPHEMERIS_TYPE = 0
CLASSIFICATION_TYPE = U
NORAD_CAT_ID   = 67506
ELEMENT_SET_NO = 999
REV_AT_EPOCH   = 267
BSTAR          = -.28909454E-2
MEAN_MOTION_DOT = -.1400451E-1
MEAN_MOTION_DDOT = .59654403E-3

CCSDS_OMM_VERS = 2.0
CREATION_DATE  = 
ORIGINATOR     = 

OBJECT_NAME    = STARLINK-36521
OBJECT_ID      = 2026-012Q
CENTER_NAME    = EARTH
REF_FRAME      = TEME
TIME_SYSTEM    = UTC
MEAN_ELEMENT_THEORY = SGP/SGP4

EPOCH          = 2026-01-28T22:00:01.999584
MEAN_MOTION    = 15.98486704
ECCENTRICITY   = .00018651
INCLINATION    = 42.9964
RA_OF_ASC_NODE = 185.5185
ARG_OF_PERICENTER = 280.1153
MEAN_ANOMALY   = 132.9939

EPHEMERIS_TYPE = 0
CLASSIFICATION_TYPE = U
NORAD_CAT_ID   = 67507
ELEMENT_SET_NO = 999
REV_AT_EPOCH   = 267
BSTAR          = -.286705E-2
MEAN_MOTION_DOT = -.1397706E-1
MEAN_MOTION_DDOT = .59510011E-3

CCSDS_OMM_VERS = 2.0
CREATION_DATE  = 
ORIGINATOR     = 

OBJECT_NAME    = STARLINK-36526
OBJECT_ID      = 2026-012R
CENTER_NAME    = EARTH
REF_FRAME      = TEME
TIME_SYSTEM    = UTC
MEAN_ELEMENT_THEORY = SGP/SGP4

EPOCH          = 2026-01-28T22:00:01.999584
MEAN_MOTION    = 15.98607145
ECCENTRICITY   = .00017844
INCLINATION    = 42.9964
RA_OF_ASC_NODE = 185.5103
ARG_OF_PERICENTER = 281.5289
MEAN_ANOMALY   = 134.8362

EPHEMERIS_TYPE = 0
CLASSIFICATION_TYPE = U
NORAD_CAT_ID   = 67508
ELEMENT_SET_NO = 999
REV_AT_EPOCH   = 267
BSTAR          = -.28519195E-2
MEAN_MOTION_DOT = -.1399746E-1
MEAN_MOTION_DDOT = .59745271E-3

CCSDS_OMM_VERS = 2.0
CREATION_DATE  = 
ORIGINATOR     = 

OBJECT_NAME    = STARLINK-36541
OBJECT_ID      = 2026-012S
CENTER_NAME    = EARTH
REF_FRAME      = TEME
TIME_SYSTEM    = UTC
MEAN_ELEMENT_THEORY = SGP/SGP4

EPOCH          = 2026-01-28T22:00:01.999584
MEAN_MOTION    = 15.98692340
ECCENTRICITY   = .00017929
INCLINATION    = 42.9965
RA_OF_ASC_NODE = 185.5034
ARG_OF_PERICENTER = 281.1783
MEAN_ANOMALY   = 137.6999

EPHEMERIS_TYPE = 0
CLASSIFICATION_TYPE = U
NORAD_CAT_ID   = 67509
ELEMENT_SET_NO = 999
REV_AT_EPOCH   = 261
BSTAR          = -.2815469E-2
MEAN_MOTION_DOT = -.1388651E-1
MEAN_MOTION_DDOT = .58932514E-3

CCSDS_OMM_VERS = 2.0
CREATION_DATE  = 
ORIGINATOR     = 

OBJECT_NAME    = STARLINK-36549
OBJECT_ID      = 2026-012T
CENTER_NAME    = EARTH
REF_FRAME      = TEME
TIME_SYSTEM    = UTC
MEAN_ELEMENT_THEORY = SGP/SGP4

EPOCH          = 2026-01-28T22:00:01.999584
MEAN_MOTION    = 16.00252256
ECCENTRICITY   = .00016395
INCLINATION    = 42.9959
RA_OF_ASC_NODE = 185.3777
ARG_OF_PERICENTER = 281.7413
MEAN_ANOMALY   = 186.4543

EPHEMERIS_TYPE = 0
CLASSIFICATION_TYPE = U
NORAD_CAT_ID   = 67510
ELEMENT_SET_NO = 999
REV_AT_EPOCH   = 261
BSTAR          = -.24271306E-2
MEAN_MOTION_DOT = -.1309342E-1
MEAN_MOTION_DDOT = .53799539E-3

CCSDS_OMM_VERS = 2.0
CREATION_DATE  = 
ORIGINATOR     = 

OBJECT_NAME    = STARLINK-36540
OBJECT_ID      = 2026-012U
CENTER_NAME    = EARTH
REF_FRAME      = TEME
TIME_SYSTEM    = UTC
MEAN_ELEMENT_THEORY = SGP/SGP4

EPOCH          = 2026-01-28T22:00:01.999584
MEAN_MOTION    = 15.98756850
ECCENTRICITY   = .00016037
INCLINATION    = 42.9965
RA_OF_ASC_NODE = 185.4991
ARG_OF_PERICENTER = 280.2745
MEAN_ANOMALY   = 140.5357

EPHEMERIS_TYPE = 0
CLASSIFICATION_TYPE = U
NORAD_CAT_ID   = 67511
ELEMENT_SET_NO = 999
REV_AT_EPOCH   = 267
BSTAR          = -.28107076E-2
MEAN_MOTION_DOT = -.1391278E-1
MEAN_MOTION_DDOT = .59177486E-3

CCSDS_OMM_VERS = 2.0
CREATION_DATE  = 
ORIGINATOR     = 

OBJECT_NAME    = STARLINK-36538
OBJECT_ID      = 2026-012V
CENTER_NAME    = EARTH
REF_FRAME      = TEME
TIME_SYSTEM    = UTC
MEAN_ELEMENT_THEORY = SGP/SGP4

EPOCH          = 2026-01-28T22:00:01.999584
MEAN_MOTION    = 15.98861379
ECCENTRICITY   = .00017408
INCLINATION    = 42.9968
RA_OF_ASC_NODE = 185.4909
ARG_OF_PERICENTER = 277.9217
MEAN_ANOMALY   = 145.9193

EPHEMERIS_TYPE = 0
CLASSIFICATION_TYPE = U
NORAD_CAT_ID   = 67512
ELEMENT_SET_NO = 999
REV_AT_EPOCH   = 267
BSTAR          = -.27667041E-2
MEAN_MOTION_DOT = -.1377812E-1
MEAN_MOTION_DDOT = .58195746E-3

CCSDS_OMM_VERS = 2.0
CREATION_DATE  = 
ORIGINATOR     = 

OBJECT_NAME    = STARLINK-36531
OBJECT_ID      = 2026-012W
CENTER_NAME    = EARTH
REF_FRAME      = TEME
TIME_SYSTEM    = UTC
MEAN_ELEMENT_THEORY = SGP/SGP4

EPOCH          = 2026-01-28T22:00:01.999584
MEAN_MOTION    = 15.98956021
ECCENTRICITY   = .00016394
INCLINATION    = 42.9971
RA_OF_ASC_NODE = 185.4852
ARG_OF_PERICENTER = 280.2548
MEAN_ANOMALY   = 146.0753

EPHEMERIS_TYPE = 0
CLASSIFICATION_TYPE = U
NORAD_CAT_ID   = 67513
ELEMENT_SET_NO = 999
REV_AT_EPOCH   = 261
BSTAR          = -.27639989E-2
MEAN_MOTION_DOT = -.1383756E-1
MEAN_MOTION_DDOT = .58715775E-3

CCSDS_OMM_VERS = 2.0
CREATION_DATE  = 
ORIGINATOR     = 

OBJECT_NAME    = STARLINK-36530
OBJECT_ID      = 2026-012X
CENTER_NAME    = EARTH
REF_FRAME      = TEME
TIME_SYSTEM    = UTC
MEAN_ELEMENT_THEORY = SGP/SGP4

EPOCH          = 2026-01-28T22:00:01.999584
MEAN_MOTION    = 15.99073436
ECCENTRICITY   = .00016235
INCLINATION    = 42.9968
RA_OF_ASC_NODE = 185.4764
ARG_OF_PERICENTER = 280.6733
MEAN_ANOMALY   = 148.9158

EPHEMERIS_TYPE = 0
CLASSIFICATION_TYPE = U
NORAD_CAT_ID   = 67514
ELEMENT_SET_NO = 999
REV_AT_EPOCH   = 261
BSTAR          = -.27315525E-2
MEAN_MOTION_DOT = -.1376724E-1
MEAN_MOTION_DDOT = .58242272E-3

